IRIDIUM 155             
1 43573U 18061E   22218.25210397  .00000088  00000+0  24495-4 0  9995
2 43573  86.3953 286.3136 0002007  90.1353 270.0073 14.34220232211126
IRIDIUM 154             
1 43574U 18061F   22218.65170860  .00000098  00000+0  28096-4 0  9992
2 43574  86.3957 286.2123 0002574  91.4556 268.6935 14.34217384211230
IRIDIUM 163             
1 43575U 18061G   22218.70244959  .00000103  00000+0  29769-4 0  9995
2 43575  86.3954 286.1498 0002442 102.0774 258.0696 14.34217300211210
IRIDIUM 156             
1 43576U 18061H   22218.60731561  .00000106  00000+0  30681-4 0  9993
2 43576  86.3954 286.1950 0002106 100.1188 260.0246 14.34216568211195
IRIDIUM 164             
1 43577U 18061J   22218.23943838  .00000099  00000+0  28327-4 0  9990
2 43577  86.3955 286.3675 0002564  94.8390 265.3098 14.34217560211180
IRIDIUM 159             
1 43578U 18061K   22218.27748801  .00000100  00000+0  28470-4 0  9990
2 43578  86.3955 286.3182 0002508  92.9500 267.1982 14.34215374211154
IRIDIUM 180             
1 43922U 19002A   22218.76535817  .00000100  00000+0  28465-4 0  9998
2 43922  86.3964 222.9772 0002884  91.9249 268.2277 14.34216713186837
IRIDIUM 176             
1 43923U 19002B   22218.76104341  .00000101  00000+0  12177-4 0  9997
2 43923  86.6100 223.0149 0002516  90.7678 269.3827 14.72246385191736
IRIDIUM 168             
1 43924U 19002C   22218.82878765  .00000097  00000+0  27489-4 0  9999
2 43924  86.3967 222.9882 0002557  87.6834 272.4654 14.34216918186825
IRIDIUM 173             
1 43925U 19002D   22218.74633588  .00000106  00000+0  30823-4 0  9990
2 43925  86.3964 222.9693 0002539  90.2531 269.8955 14.34216444186791
IRIDIUM 169             
1 43926U 19002E   22218.80030485  .00000127  00000+0  35069-4 0  9995
2 43926  86.4196 254.5396 0002884 335.8074  24.2989 14.38600409187450
IRIDIUM 172             
1 43927U 19002F   22218.73999989  .00000101  00000+0  28930-4 0  9992
2 43927  86.3964 222.9755 0002608  89.8920 270.2575 14.34217245186801
IRIDIUM 175             
1 43928U 19002G   22218.75492702  .00000182  00000+0  24877-4 0  9991
2 43928  86.6102 222.8494 0002630  88.4320 271.7199 14.72253052191725
IRIDIUM 171             
1 43929U 19002H   22218.72095936  .00000102  00000+0  29336-4 0  9994
2 43929  86.3972 223.1330 0002545  87.1813 272.9674 14.34215765186798
IRIDIUM 170             
1 43930U 19002J   22218.76724125  .00000178  00000+0  24291-4 0  9997
2 43930  86.6099 223.0178 0002438  86.6018 273.5478 14.72247883191742
IRIDIUM 167             
1 43931U 19002K   22218.71461989  .00000097  00000+0  27494-4 0  9997
2 43931  86.3964 222.9960 0002727  89.9811 270.1697 14.34216962186793
